[{"OBJECT_NAME":"STARLINK-36724","OBJECT_ID":"2026-036L","EPOCH":"2026-03-03T14:00:03.000384","MEAN_MOTION":15.8425047,"ECCENTRICITY":0.00017279,"INCLINATION":42.994,"RA_OF_ASC_NODE":287.1202,"ARG_OF_PERICENTER":266.2127,"MEAN_ANOMALY":112.273,"EPHEMERIS_TYPE":0,"CLASSIFICATION_TYPE":"U","NORAD_CAT_ID":67914,"ELEMENT_SET_NO":999,"REV_AT_EPOCH":266,"BSTAR":-0.0078290078,"MEAN_MOTION_DOT":-0.0160416,"MEAN_MOTION_DDOT":0},{"OBJECT_NAME":"STARLINK-36723","OBJECT_ID":"2026-036M","EPOCH":"2026-03-03T14:00:03.000384","MEAN_MOTION":15.84052142,"ECCENTRICITY":0.00019376,"INCLINATION":42.9943,"RA_OF_ASC_NODE":287.1303,"ARG_OF_PERICENTER":266.5615,"MEAN_ANOMALY":108.0867,"EPHEMERIS_TYPE":0,"CLASSIFICATION_TYPE":"U","NORAD_CAT_ID":67915,"ELEMENT_SET_NO":999,"REV_AT_EPOCH":266,"BSTAR":-0.0079201359,"MEAN_MOTION_DOT":-0.01607096,"MEAN_MOTION_DDOT":0},{"OBJECT_NAME":"STARLINK-36721","OBJECT_ID":"2026-036N","EPOCH":"2026-03-03T14:00:03.000384","MEAN_MOTION":15.84377806,"ECCENTRICITY":0.00017254,"INCLINATION":42.9944,"RA_OF_ASC_NODE":287.1107,"ARG_OF_PERICENTER":268.795,"MEAN_ANOMALY":113.6718,"EPHEMERIS_TYPE":0,"CLASSIFICATION_TYPE":"U","NORAD_CAT_ID":67916,"ELEMENT_SET_NO":999,"REV_AT_EPOCH":266,"BSTAR":-0.0077936364,"MEAN_MOTION_DOT":-0.0160647,"MEAN_MOTION_DDOT":0},{"OBJECT_NAME":"STARLINK-36722","OBJECT_ID":"2026-036P","EPOCH":"2026-03-03T14:00:03.000384","MEAN_MOTION":15.84546406,"ECCENTRICITY":0.00020312,"INCLINATION":42.9944,"RA_OF_ASC_NODE":287.1011,"ARG_OF_PERICENTER":264.503,"MEAN_ANOMALY":121.8015,"EPHEMERIS_TYPE":0,"CLASSIFICATION_TYPE":"U","NORAD_CAT_ID":67917,"ELEMENT_SET_NO":999,"REV_AT_EPOCH":266,"BSTAR":-0.0076896478,"MEAN_MOTION_DOT":-0.01599418,"MEAN_MOTION_DDOT":0},{"OBJECT_NAME":"STARLINK-36341","OBJECT_ID":"2026-036Q","EPOCH":"2026-03-03T14:00:03.000384","MEAN_MOTION":15.84879401,"ECCENTRICITY":0.00017469,"INCLINATION":42.9942,"RA_OF_ASC_NODE":287.0816,"ARG_OF_PERICENTER":266.4834,"MEAN_ANOMALY":127.4539,"EPHEMERIS_TYPE":0,"CLASSIFICATION_TYPE":"U","NORAD_CAT_ID":67918,"ELEMENT_SET_NO":999,"REV_AT_EPOCH":266,"BSTAR":-0.0075744313,"MEAN_MOTION_DOT":-0.01600745,"MEAN_MOTION_DDOT":0},{"OBJECT_NAME":"STARLINK-36663","OBJECT_ID":"2026-036R","EPOCH":"2026-03-03T14:00:03.000384","MEAN_MOTION":15.84713643,"ECCENTRICITY":0.00017968,"INCLINATION":42.9945,"RA_OF_ASC_NODE":287.0914,"ARG_OF_PERICENTER":265.8159,"MEAN_ANOMALY":124.3179,"EPHEMERIS_TYPE":0,"CLASSIFICATION_TYPE":"U","NORAD_CAT_ID":67919,"ELEMENT_SET_NO":999,"REV_AT_EPOCH":266,"BSTAR":-0.0076335279,"MEAN_MOTION_DOT":-0.0160035,"MEAN_MOTION_DDOT":0},{"OBJECT_NAME":"STARLINK-36375","OBJECT_ID":"2026-036S","EPOCH":"2026-03-03T14:00:03.000384","MEAN_MOTION":15.85025691,"ECCENTRICITY":0.0001706,"INCLINATION":42.9944,"RA_OF_ASC_NODE":287.0722,"ARG_OF_PERICENTER":269.9196,"MEAN_ANOMALY":127.859,"EPHEMERIS_TYPE":0,"CLASSIFICATION_TYPE":"U","NORAD_CAT_ID":67920,"ELEMENT_SET_NO":999,"REV_AT_EPOCH":266,"BSTAR":-0.0075328423,"MEAN_MOTION_DOT":-0.01603004,"MEAN_MOTION_DDOT":0},{"OBJECT_NAME":"STARLINK-36405","OBJECT_ID":"2026-036T","EPOCH":"2026-03-03T14:00:03.000384","MEAN_MOTION":15.85201325,"ECCENTRICITY":0.00018102,"INCLINATION":42.9944,"RA_OF_ASC_NODE":287.0631,"ARG_OF_PERICENTER":264.8746,"MEAN_ANOMALY":136.5976,"EPHEMERIS_TYPE":0,"CLASSIFICATION_TYPE":"U","NORAD_CAT_ID":67921,"ELEMENT_SET_NO":999,"REV_AT_EPOCH":266,"BSTAR":-0.0074302127,"MEAN_MOTION_DOT":-0.01595941,"MEAN_MOTION_DDOT":0},{"OBJECT_NAME":"STARLINK-36383","OBJECT_ID":"2026-036U","EPOCH":"2026-03-03T14:00:03.000384","MEAN_MOTION":15.85341101,"ECCENTRICITY":0.0001749,"INCLINATION":42.9946,"RA_OF_ASC_NODE":287.0535,"ARG_OF_PERICENTER":264.9278,"MEAN_ANOMALY":140.366,"EPHEMERIS_TYPE":0,"CLASSIFICATION_TYPE":"U","NORAD_CAT_ID":67922,"ELEMENT_SET_NO":999,"REV_AT_EPOCH":266,"BSTAR":-0.0074041677,"MEAN_MOTION_DOT":-0.01600552,"MEAN_MOTION_DDOT":0},{"OBJECT_NAME":"STARLINK-36406","OBJECT_ID":"2026-036V","EPOCH":"2026-03-03T14:00:03.000384","MEAN_MOTION":15.85507184,"ECCENTRICITY":0.00017965,"INCLINATION":42.9945,"RA_OF_ASC_NODE":287.0442,"ARG_OF_PERICENTER":269.4151,"MEAN_ANOMALY":139.567,"EPHEMERIS_TYPE":0,"CLASSIFICATION_TYPE":"U","NORAD_CAT_ID":67923,"ELEMENT_SET_NO":999,"REV_AT_EPOCH":266,"BSTAR":-0.0073334146,"MEAN_MOTION_DOT":-0.01598573,"MEAN_MOTION_DDOT":0},{"OBJECT_NAME":"STARLINK-36714","OBJECT_ID":"2026-036W","EPOCH":"2026-03-03T14:00:03.000384","MEAN_MOTION":15.85675168,"ECCENTRICITY":0.0001731,"INCLINATION":42.9946,"RA_OF_ASC_NODE":287.0349,"ARG_OF_PERICENTER":268.4623,"MEAN_ANOMALY":144.1781,"EPHEMERIS_TYPE":0,"CLASSIFICATION_TYPE":"U","NORAD_CAT_ID":67924,"ELEMENT_SET_NO":999,"REV_AT_EPOCH":266,"BSTAR":-0.0072816964,"MEAN_MOTION_DOT":-0.01600172,"MEAN_MOTION_DDOT":0},{"OBJECT_NAME":"STARLINK-36726","OBJECT_ID":"2026-036X","EPOCH":"2026-03-03T14:00:03.000384","MEAN_MOTION":15.85860224,"ECCENTRICITY":0.00016538,"INCLINATION":42.9945,"RA_OF_ASC_NODE":287.026,"ARG_OF_PERICENTER":268.0038,"MEAN_ANOMALY":148.1776,"EPHEMERIS_TYPE":0,"CLASSIFICATION_TYPE":"U","NORAD_CAT_ID":67925,"ELEMENT_SET_NO":999,"REV_AT_EPOCH":266,"BSTAR":-0.0071984063,"MEAN_MOTION_DOT":-0.01596774,"MEAN_MOTION_DDOT":0},{"OBJECT_NAME":"STARLINK-36758","OBJECT_ID":"2026-036Y","EPOCH":"2026-03-03T14:00:03.000384","MEAN_MOTION":15.8600957,"ECCENTRICITY":0.00017157,"INCLINATION":42.9944,"RA_OF_ASC_NODE":287.0166,"ARG_OF_PERICENTER":265.9833,"MEAN_ANOMALY":153.8552,"EPHEMERIS_TYPE":0,"CLASSIFICATION_TYPE":"U","NORAD_CAT_ID":67926,"ELEMENT_SET_NO":999,"REV_AT_EPOCH":266,"BSTAR":-0.0071280108,"MEAN_MOTION_DOT":-0.01593405,"MEAN_MOTION_DDOT":0},{"OBJECT_NAME":"STARLINK-36728","OBJECT_ID":"2026-036Z","EPOCH":"2026-03-03T14:00:03.000384","MEAN_MOTION":15.86278378,"ECCENTRICITY":0.00017397,"INCLINATION":42.9944,"RA_OF_ASC_NODE":286.9976,"ARG_OF_PERICENTER":272.3484,"MEAN_ANOMALY":154.9194,"EPHEMERIS_TYPE":0,"CLASSIFICATION_TYPE":"U","NORAD_CAT_ID":67927,"ELEMENT_SET_NO":999,"REV_AT_EPOCH":266,"BSTAR":-0.0070512793,"MEAN_MOTION_DOT":-0.01596884,"MEAN_MOTION_DDOT":0},{"OBJECT_NAME":"STARLINK-36771","OBJECT_ID":"2026-036AA","EPOCH":"2026-03-03T14:00:03.000384","MEAN_MOTION":15.86121201,"ECCENTRICITY":0.00016591,"INCLINATION":42.9943,"RA_OF_ASC_NODE":287.0066,"ARG_OF_PERICENTER":271.1497,"MEAN_ANOMALY":152.5349,"EPHEMERIS_TYPE":0,"CLASSIFICATION_TYPE":"U","NORAD_CAT_ID":67928,"ELEMENT_SET_NO":999,"REV_AT_EPOCH":266,"BSTAR":-0.0071229239,"MEAN_MOTION_DOT":-0.01600064,"MEAN_MOTION_DDOT":0},{"OBJECT_NAME":"STARLINK-36809","OBJECT_ID":"2026-036AB","EPOCH":"2026-03-03T14:00:03.000384","MEAN_MOTION":15.86414982,"ECCENTRICITY":0.00016854,"INCLINATION":42.9943,"RA_OF_ASC_NODE":286.9885,"ARG_OF_PERICENTER":265.4377,"MEAN_ANOMALY":165.4966,"EPHEMERIS_TYPE":0,"CLASSIFICATION_TYPE":"U","NORAD_CAT_ID":67929,"ELEMENT_SET_NO":999,"REV_AT_EPOCH":266,"BSTAR":-0.0070083161,"MEAN_MOTION_DOT":-0.01597762,"MEAN_MOTION_DDOT":0}]
